[{"OBJECT_NAME":"LKW-1","OBJECT_ID":"2017-077A","EPOCH":"2026-03-09T23:46:54.269760","MEAN_MOTION":15.23569891,"ECCENTRICITY":0.00030108,"INCLINATION":97.1124,"RA_OF_ASC_NODE":108.4614,"ARG_OF_PERICENTER":155.1803,"MEAN_ANOMALY":204.9581,"EPHEMERIS_TYPE":0,"CLASSIFICATION_TYPE":"U","NORAD_CAT_ID":43034,"ELEMENT_SET_NO":999,"REV_AT_EPOCH":45959,"BSTAR":0.0002203455,"MEAN_MOTION_DOT":5.204e-5,"MEAN_MOTION_DDOT":0},{"OBJECT_NAME":"SUPERVIEW NEO-3 02","OBJECT_ID":"2025-051A","EPOCH":"2026-03-09T23:45:14.766336","MEAN_MOTION":15.23140616,"ECCENTRICITY":0.00022991,"INCLINATION":97.4564,"RA_OF_ASC_NODE":148.8655,"ARG_OF_PERICENTER":127.1916,"MEAN_ANOMALY":232.9531,"EPHEMERIS_TYPE":0,"CLASSIFICATION_TYPE":"U","NORAD_CAT_ID":63208,"ELEMENT_SET_NO":999,"REV_AT_EPOCH":5473,"BSTAR":0.00055163921,"MEAN_MOTION_DOT":0.00012967,"MEAN_MOTION_DDOT":0}]
